[{"OBJECT_NAME":"STARLINK-31065","OBJECT_ID":"2023-203K","EPOCH":"2026-03-09T00:47:50.815392","MEAN_MOTION":15.27577916,"ECCENTRICITY":6.838e-5,"INCLINATION":43,"RA_OF_ASC_NODE":70.5804,"ARG_OF_PERICENTER":259.7162,"MEAN_ANOMALY":100.3613,"EPHEMERIS_TYPE":0,"CLASSIFICATION_TYPE":"U","NORAD_CAT_ID":58627,"ELEMENT_SET_NO":999,"REV_AT_EPOCH":12346,"BSTAR":1.3912572e-5,"MEAN_MOTION_DOT":1.21e-6,"MEAN_MOTION_DDOT":0},{"OBJECT_NAME":"CZ-6A DEB","OBJECT_ID":"2024-140KE","EPOCH":"2026-03-09T13:17:54.060288","MEAN_MOTION":15.16973657,"ECCENTRICITY":0.0047014,"INCLINATION":88.8608,"RA_OF_ASC_NODE":269.4441,"ARG_OF_PERICENTER":134.0266,"MEAN_ANOMALY":226.4867,"EPHEMERIS_TYPE":0,"CLASSIFICATION_TYPE":"U","NORAD_CAT_ID":60875,"ELEMENT_SET_NO":999,"REV_AT_EPOCH":8467,"BSTAR":0.004516425,"MEAN_MOTION_DOT":0.00092692,"MEAN_MOTION_DDOT":0}]
